{
  "norad_id": 60460,
  "name": "YAOGAN-43 01C",
  "history": [
    {
      "epoch": "2026-05-09T20:57:27.789984Z",
      "apogee_km": 501.26373759870967,
      "perigee_km": 492.4499954618186,
      "latitude_deg": 2.2046708156716395e-05,
      "longitude_deg": -138.55332996527,
      "height_km": 498.6150673947149,
      "semi_major_axis_km": 6874.993866530264,
      "eccentricity": 0.000641,
      "inclination_deg": 35.0001,
      "raan_deg": 43.497,
      "arg_perigee_deg": 229.7187,
      "mean_anomaly_deg": 130.2968,
      "mean_motion_rev_day": 15.22980313
    },
    {
      "epoch": "2026-05-10T20:33:23.658912Z",
      "apogee_km": 501.28636880347585,
      "perigee_km": 492.35717235225,
      "latitude_deg": 1.2553047882340633e-05,
      "longitude_deg": -139.68890219860523,
      "height_km": 498.12493035229517,
      "semi_major_axis_km": 6874.958770577863,
      "eccentricity": 0.0006494,
      "inclination_deg": 35.0004,
      "raan_deg": 37.3134,
      "arg_perigee_deg": 237.574,
      "mean_anomaly_deg": 122.4347,
      "mean_motion_rev_day": 15.22991975
    },
    {
      "epoch": "2026-05-11T20:09:18.940320Z",
      "apogee_km": 501.3172573026095,
      "perigee_km": 492.2629782884733,
      "latitude_deg": -1.564414781862349e-05,
      "longitude_deg": -140.82204541810648,
      "height_km": 497.5907575304767,
      "semi_major_axis_km": 6874.927117795542,
      "eccentricity": 0.0006585,
      "inclination_deg": 35.0007,
      "raan_deg": 31.1298,
      "arg_perigee_deg": 245.3067,
      "mean_anomaly_deg": 114.6962,
      "mean_motion_rev_day": 15.23002493
    },
    {
      "epoch": "2026-05-12T19:45:13.692960Z",
      "apogee_km": 501.34103370121284,
      "perigee_km": 492.1740493195621,
      "latitude_deg": 2.4664954721463036e-05,
      "longitude_deg": -141.95308146540432,
      "height_km": 497.0144265368211,
      "semi_major_axis_km": 6874.894541510387,
      "eccentricity": 0.0006667,
      "inclination_deg": 35.001,
      "raan_deg": 24.946,
      "arg_perigee_deg": 252.905,
      "mean_anomaly_deg": 107.0935,
      "mean_motion_rev_day": 15.23013318
    },
    {
      "epoch": "2026-05-13T19:21:07.930656Z",
      "apogee_km": 501.3561563022731,
      "perigee_km": 492.1025861665912,
      "latitude_deg": 4.7271375331969454e-08,
      "longitude_deg": -143.0818580322868,
      "height_km": 496.39830312268214,
      "semi_major_axis_km": 6874.866371234432,
      "eccentricity": 0.000673,
      "inclination_deg": 35.0012,
      "raan_deg": 18.7624,
      "arg_perigee_deg": 260.5551,
      "mean_anomaly_deg": 99.4403,
      "mean_motion_rev_day": 15.23022679
    },
    {
      "epoch": "2026-05-14T03:13:05.890944Z",
      "apogee_km": 501.35414442856745,
      "perigee_km": 492.0827143964616,
      "latitude_deg": 2.8237461804153458e-05,
      "longitude_deg": 96.54253170649977,
      "height_km": 496.17901790462565,
      "semi_major_axis_km": 6874.855429412514,
      "eccentricity": 0.0006743,
      "inclination_deg": 35.0012,
      "raan_deg": 16.7013,
      "arg_perigee_deg": 263.1754,
      "mean_anomaly_deg": 96.8194,
      "mean_motion_rev_day": 15.23026315
    }
  ]
}